NIMIQ 2                 
1 27632U 02062A   26193.30739295 -.00000075  00000+0  00000+0 0  9990
2 27632   9.5016  56.6281 0005267  53.3577 181.6753  1.00270146 44438
USA 167                 
1 27691U 03008A   26193.23933588 -.00000003  00000+0  00000+0 0  9990
2 27691  11.0090  43.1794 0003323 309.3979 261.9864  1.00270391  7025
USA 169 (MILSTAR-2 4)   
1 27711U 03012A   26192.88015819 -.00000202  00000+0  00000+0 0  9997
2 27711  12.3855  29.6356 0099245  10.1630 358.9712  1.00273664 33207
ASIASAT 4               
1 27718U 03014A   26192.59776293 -.00000222  00000+0  00000+0 0  9996
2 27718   4.7645  75.4402 0002908  35.8393 180.9556  1.00270582 45542
HELLAS-SAT 2            
1 27811U 03020A   26192.84812384 -.00000088  00000+0  00000+0 0  9997
2 27811   7.4132  67.5860 0003470  79.1889  78.2695  1.00271348 43095
THURAYA-2               
1 27825U 03026A   26193.21521546  .00000120  00000+0  00000+0 0  9993
2 27825   8.8771  31.8612 0002561  23.8744 355.8559  1.00272666 84608
OPTUS C1                
1 27831U 03028B   26192.61180458 -.00000154  00000+0  00000+0 0  9996
2 27831   6.9479  69.1103 0005201  39.1910 197.1867  1.00269515 53308
USA 170                 
1 27875U 03040A   26192.82206185  .00000121  00000+0  00000+0 0  9990
2 27875  10.5501  47.7102 0001761  81.9616 120.2124  1.00274052 33245
GALAXY 13 (HORIZONS-1)  
1 27954U 03044A   26193.25044870  .00000133  00000+0  00000+0 0  9994
2 27954   1.4821  83.5453 0002164  24.6362 122.1149  1.00269965 46827
YAMAL 202               
1 28089U 03053A   26193.36038135 -.00000085  00000+0  00000+0 0  9990
2 28089   6.4037  70.6324 0003322  38.7225 114.1836  1.00272162 82957
UFO 11 (USA 174)        
1 28117U 03057A   26193.07892153 -.00000108  00000+0  00000+0 0  9998
2 28117   8.9538  33.7024 0002648  90.2980 269.9767  1.00270283 82695
USA 176 (DSP 22)        
1 28158U 04004A   26193.02916721 -.00000302  00000+0  00000+0 0  9995
2 28158  12.0948  25.8814 0001103 285.8583 299.3115  1.00266820 33182
ABS-4 (MOBISAT-1)       
1 28184U 04007A   26193.21859549  .00000035  00000+0  00000+0 0  9994
2 28184   6.1026  71.7020 0004601  40.5894 317.4536  1.00272653 52583
INTELSAT 10-02          
1 28358U 04022A   26192.99250764 -.00000008  00000+0  00000+0 0  9993
2 28358   0.0519 255.9518 0000592 328.8445  61.3886  1.00270427 80809
ANIK F2                 
1 28378U 04027A   26193.30739295 -.00000051  00000+0  00000+0 0  9995
2 28378   3.3498  79.1103 0003555  30.8886 179.7367  1.00271169 41517
AMC-15                  
1 28446U 04041A   26193.30739295 -.00000087  00000+0  00000+0 0  9996
2 28446   0.0346 304.3045 0002264 184.5757 166.9270  1.00271234 79556
NSS-10                  
1 28526U 05003A   26193.20394370 -.00000256  00000+0  00000+0 0  9992
2 28526   6.5097  70.1454 0002577  38.0995 217.8253  1.00270905 53402
INMARSAT 4-F1           
1 28628U 05009A   26192.74279605  .00000032  00000+0  00000+0 0  9993
2 28628   5.2002  42.7797 0002499  72.5823 259.7934  1.00270973 77916
DIRECTV 8               
1 28659U 05019A   26193.23378414  .00000004  00000+0  00000+0 0  9990
2 28659   0.0205  76.1722 0003029  49.8366 129.2280  1.00271120 77321
GALAXY 28 (G-28)        
1 28702U 05022A   26193.20117539 -.00000201  00000+0  00000+0 0  9999
2 28702   3.3610  78.6270 0002313  30.1375 226.6470  1.00270916 52226
THAICOM 4               
1 28786U 05028A   26193.23020888 -.00000360  00000+0  00000+0 0  9996
2 28786   0.3075  85.5470 0001464   5.6346  41.3098  1.00269994 52503
ANIK F1R                
1 28868U 05036A   26193.30739295 -.00000078  00000+0  00000+0 0  9999
2 28868   4.3742  76.2671 0003719  27.0862 190.2084  1.00271313 46707
SYRACUSE 3A             
1 28885U 05041B   26193.21573547  .00000126  00000+0  00000+0 0  9993
2 28885   4.7039  75.5324 0002736  30.1462 308.7237  1.00272810 75997
INMARSAT 4-F2           
1 28899U 05044A   26193.30623900 -.00000263  00000+0  00000+0 0  9993
2 28899   5.1267  43.6546 0002782  60.2655  80.0209  1.00270977 75778
METEOSAT-9 (MSG-2)      
1 28912U 05049B   26193.21556214  .00000118  00000+0  00000+0 0  9995
2 28912   9.4157  53.9162 0002045 356.7107   2.7516  1.00270590  7244
EUTELSAT 174A           
1 28924U 05052A   26192.61863230  .00000009  00000+0  00000+0 0  9993
2 28924   4.2778  76.2239 0005783  36.7704 213.1891  1.00270269 52575
ECHOSTAR 10             
1 28935U 06003A   26193.30739295 -.00000053  00000+0  00000+0 0  9992
2 28935   0.0365 306.1335 0001085 140.1549 204.3954  1.00270606 74710
SPAINSAT                
1 28945U 06007A   26193.27792940 -.00000216  00000+0  00000+0 0  9990
2 28945   0.6256  86.1044 0004606  24.6291 249.3073  1.00270006 74467
JCSAT-5A                
1 29045U 06010A   26193.30398566 -.00000327  00000+0  00000+0 0  9999
2 29045   1.1717  83.9360 0001643  23.2176  64.5175  1.00270634 74027
ASTRA 1KR               
1 29055U 06012A   26193.21027544  .00000120  00000+0  00000+0 0  9997
2 29055   0.5359  83.1799 0003297  20.1907 281.4420  1.00269013 45947
GALAXY 16 (G-16)        
1 29236U 06023A   26193.30183786 -.00000125  00000+0  00000+0 0  9997
2 29236   0.0367 112.5847 0002443   8.6264 178.6450  1.00271226 73223
EUTELSAT 33F            
1 29270U 06032A   26193.21304880  .00000156  00000+0  00000+0 0  9998
2 29270   1.7237  81.9640 0003382  26.2744 291.6306  1.00270162 47558
